$$SOE
2461295.500000000, A.D. 2026-Sep-12 00:00:00.0000, 2.068772553814916E+08, -2.965366667043154E+08, 9.085460750547901E+06,
2461302.500000000, A.D. 2026-Sep-19 00:00:00.0000, 2.158699727193902E+08, -2.891540198952632E+08, 9.207930738176674E+06,
2461309.500000000, A.D. 2026-Sep-26 00:00:00.0000, 2.246398985394456E+08, -2.814729715719748E+08, 9.320896832672045E+06,
2461316.500000000, A.D. 2026-Oct-03 00:00:00.0000, 2.331765924716028E+08, -2.734997122808819E+08, 9.424184918230593E+06,
2461323.500000000, A.D. 2026-Oct-10 00:00:00.0000, 2.414697435777702E+08, -2.652408256317588E+08, 9.517629312033236E+06,
2461330.500000000, A.D. 2026-Oct-17 00:00:00.0000, 2.495091864308883E+08, -2.567032891693412E+08, 9.601073179035008E+06,
2461337.500000000, A.D. 2026-Oct-24 00:00:00.0000, 2.572849176096444E+08, -2.478944746493680E+08, 9.674368940938532E+06,
2461344.500000000, A.D. 2026-Oct-31 00:00:00.0000, 2.647871126762566E+08, -2.388221477381827E+08, 9.737378663148910E+06,
2461351.500000000, A.D. 2026-Nov-07 00:00:00.0000, 2.720061439437447E+08, -2.294944670133187E+08, 9.789974392995089E+06,
2461358.500000000, A.D. 2026-Nov-14 00:00:00.0000, 2.789325992003927E+08, -2.199199813330452E+08, 9.832038502358004E+06,
2461365.500000000, A.D. 2026-Nov-21 00:00:00.0000, 2.855572995415202E+08, -2.101076248535058E+08, 9.863464255842805E+06,
2461372.500000000, A.D. 2026-Nov-28 00:00:00.0000, 2.918713152636201E+08, -2.000667126617414E+08, 9.884156448606998E+06,
2461379.500000000, A.D. 2026-Dec-05 00:00:00.0000, 2.978659833884466E+08, -1.898069376388971E+08, 9.894031726121575E+06,
2461386.500000000, A.D. 2026-Dec-12 00:00:00.0000, 3.035329269292501E+08, -1.793383654039143E+08, 9.893018823324181E+06,
2461393.500000000, A.D. 2026-Dec-19 00:00:00.0000, 3.088640739560311E+08, -1.686714272979252E+08, 9.881058895370491E+06,
2461400.500000000, A.D. 2026-Dec-26 00:00:00.0000, 3.138516762564725E+08, -1.578169122475697E+08, 9.858105880511627E+06,
2461407.500000000, A.D. 2027-Jan-02 00:00:00.0000, 3.184883278028420E+08, -1.467859576717029E+08, 9.824126852433123E+06,
2461414.500000000, A.D. 2027-Jan-09 00:00:00.0000, 3.227669830723124E+08, -1.355900393889805E+08, 9.779102351145960E+06,
2461421.500000000, A.D. 2027-Jan-16 00:00:00.0000, 3.266809751829198E+08, -1.242409605001089E+08, 9.723026688053466E+06,
2461428.500000000, A.D. 2027-Jan-23 00:00:00.0000, 3.302240338141235E+08, -1.127508392727577E+08, 9.655908215746932E+06,
2461435.500000000, A.D. 2027-Jan-30 00:00:00.0000, 3.333903030174368E+08, -1.011320960706417E+08, 9.577769538963873E+06,
2461442.500000000, A.D. 2027-Feb-06 00:00:00.0000, 3.361743592555746E+08, -8.939743898330399E+07, 9.488647652836781E+06,
2461449.500000000, A.D. 2027-Feb-13 00:00:00.0000, 3.385712291269751E+08, -7.755984693823694E+07, 9.388594148607995E+06,
2461456.500000000, A.D. 2027-Feb-20 00:00:00.0000, 3.405764043326309E+08, -6.563255110004769E+07, 9.277675637915608E+06,
2461463.500000000, A.D. 2027-Feb-27 00:00:00.0000, 3.421858551945322E+08, -5.362901779298513E+07, 9.155974002706941E+06,
2461470.500000000, A.D. 2027-Mar-06 00:00:00.0000, 3.433960456526175E+08, -4.156293104868936E+07, 9.023586348355271E+06,
2461477.500000000, A.D. 2027-Mar-13 00:00:00.0000, 3.442039480535551E+08, -2.944817276019238E+07, 8.880624972342758E+06,
2461484.500000000, A.D. 2027-Mar-20 00:00:00.0000, 3.446070565188618E+08, -1.729880131654436E+07, 8.727217382388208E+06,
2461491.500000000, A.D. 2027-Mar-27 00:00:00.0000, 3.446033990125505E+08, -5.129029314710910E+06, 8.563506299195807E+06,
2461498.500000000, A.D. 2027-Apr-03 00:00:00.0000, 3.441915482313972E+08, 7.046799548646761E+06, 8.389649620012555E+06,
2461505.500000000, A.D. 2027-Apr-10 00:00:00.0000, 3.433706313025108E+08, 1.921423436673688E+07, 8.205820338197994E+06,
2461512.500000000, A.D. 2027-Apr-17 00:00:00.0000, 3.421403382382593E+08, 3.135874161060824E+07, 8.012206414857103E+06,
2461519.500000000, A.D. 2027-Apr-24 00:00:00.0000, 3.405009291615642E+08, 4.346573027768344E+07, 7.809010589743139E+06,
2461526.500000000, A.D. 2027-May-01 00:00:00.0000, 3.384532405402635E+08, 5.552057754479790E+07, 7.596450105766114E+06,
2461533.500000000, A.D. 2027-May-08 00:00:00.0000, 3.359986906786311E+08, 6.750865558373177E+07, 7.374756379390866E+06,
2461540.500000000, A.D. 2027-May-15 00:00:00.0000, 3.331392829174272E+08, 7.941536040187533E+07, 7.144174832600001E+06,
2461547.500000000, A.D. 2027-May-22 00:00:00.0000, 3.298776049456741E+08, 9.122614001821126E+07, 6.904964819579355E+06,
2461554.500000000, A.D. 2027-May-29 00:00:00.0000, 3.262168275486127E+08, 1.029265203932607E+08, 6.657399220071271E+06,
2461561.500000000, A.D. 2027-Jun-05 00:00:00.0000, 3.221607036389552E+08, 1.145021321302190E+08, 6.401763873198316E+06,
2461568.500000000, A.D. 2027-Jun-12 00:00:00.0000, 3.177135655347075E+08, 1.259387382694948E+08, 6.138357071368523E+06,
2461575.500000000, A.D. 2027-Jun-19 00:00:00.0000, 3.128803201386598E+08, 1.372222621355626E+08, 5.867489069809943E+06,
2461582.500000000, A.D. 2027-Jun-26 00:00:00.0000, 3.076664423025427E+08, 1.483388148693741E+08, 5.589481567608468E+06,
2461589.500000000, A.D. 2027-Jul-03 00:00:00.0000, 3.020779665268304E+08, 1.592747225456464E+08, 5.304667152154461E+06,
2461596.500000000, A.D. 2027-Jul-10 00:00:00.0000, 2.961214770611544E+08, 1.700165527704097E+08, 5.013388707330078E+06,
2461603.500000000, A.D. 2027-Jul-17 00:00:00.0000, 2.898040964752476E+08, 1.805511406057075E+08, 4.715998781453446E+06,
2461610.500000000, A.D. 2027-Jul-24 00:00:00.0000, 2.831334728966863E+08, 1.908656136475641E+08, 4.412858897890508E+06,
2461617.500000000, A.D. 2027-Jul-31 00:00:00.0000, 2.761177663756024E+08, 2.009474163854640E+08, 4.104338792165861E+06,
2461624.500000000, A.D. 2027-Aug-07 00:00:00.0000, 2.687656342296610E+08, 2.107843348884615E+08, 3.790815690086663E+06,
2461631.500000000, A.D. 2027-Aug-14 00:00:00.0000, 2.610862131233611E+08, 2.203645214666184E+08, 3.472673820232689E+06,
2461638.500000000, A.D. 2027-Aug-21 00:00:00.0000, 2.530890985740022E+08, 2.296765158620512E+08, 3.150303833357230E+06,
2461645.500000000, A.D. 2027-Aug-28 00:00:00.0000, 2.447843254031465E+08, 2.387092640895332E+08, 2.824101914988682E+06,
2461652.500000000, A.D. 2027-Sep-04 00:00:00.0000, 2.361823480361366E+08, 2.474521373476943E+08, 2.494468906480253E+06,
2461659.500000000, A.D. 2027-Sep-11 00:00:00.0000, 2.272940193432079E+08, 2.558949502704573E+08, 2.161809511568576E+06,
2461666.500000000, A.D. 2027-Sep-18 00:00:00.0000, 2.181305682520110E+08, 2.640279778090700E+08, 1.826531526226148E+06,
2461673.500000000, A.D. 2027-Sep-25 00:00:00.0000, 2.087035764616499E+08, 2.718419706159181E+08, 1.489045067460775E+06,
2461680.500000000, A.D. 2027-Oct-02 00:00:00.0000, 1.990249544375443E+08, 2.793281689152223E+08, 1.149761799340099E+06,
2461687.500000000, A.D. 2027-Oct-09 00:00:00.0000, 1.891069168159663E+08, 2.864783148227959E+08, 8.090941566729695E+05,
2461694.500000000, A.D. 2027-Oct-16 00:00:00.0000, 1.789619573890803E+08, 2.932846630361617E+08, 4.674545589032769E+05,
2461701.500000000, A.D. 2027-Oct-23 00:00:00.0000, 1.686028240387982E+08, 2.997399898758013E+08, 1.252545927070677E+05,
2461708.500000000, A.D. 2027-Oct-30 00:00:00.0000, 1.580424941043841E+08, 3.058376012848311E+08, -2.170958187103420E+05,
2461715.500000000, A.D. 2027-Nov-06 00:00:00.0000, 1.472941491313399E+08, 3.115713409161779E+08, -5.591890588546097E+05,
2461722.500000000, A.D. 2027-Nov-13 00:00:00.0000, 1.363711471170776E+08, 3.169355962344835E+08, -9.006202586477250E+05,
2461729.500000000, A.D. 2027-Nov-20 00:00:00.0000, 1.252869952540605E+08, 3.219253004719672E+08, -1.240987976168498E+06,
2461736.500000000, A.D. 2027-Nov-27 00:00:00.0000, 1.140553248951212E+08, 3.265359334345602E+08, -1.579895020098671E+06,
2461743.500000000, A.D. 2027-Dec-04 00:00:00.0000, 1.026898668147720E+08, 3.307635220988736E+08, -1.916949155131161E+06,
2461750.500000000, A.D. 2027-Dec-11 00:00:00.0000, 9.120442630318989E+07, 3.346046400704135E+08, -2.251763715625256E+06,
2461757.500000000, A.D. 2027-Dec-18 00:00:00.0000, 7.961285844930075E+07, 3.380564056077025E+08, -2.583958178621441E+06,
2461764.500000000, A.D. 2027-Dec-25 00:00:00.0000, 6.792904384048367E+07, 3.411164782621415E+08, -2.913158708789647E+06,
2461771.500000000, A.D. 2028-Jan-01 00:00:00.0000, 5.616686479064619E+07, 3.437830542080424E+08, -3.238998676635966E+06,
$$EOE